{
    "links": {
        "self": "http://www.neowsapp.com/rest/v1/neo/3754330?api_key=iIulBulltgU6a56xZRHN4H3l9WmuAYTsLGpBGhQ2"
    },
    "id": "3754330",
    "neo_reference_id": "3754330",
    "name": "(2016 MK)",
    "designation": "2016 MK",
    "nasa_jpl_url": "http://ssd.jpl.nasa.gov/sbdb.cgi?sstr=3754330",
    "absolute_magnitude_h": 23.1,
    "estimated_diameter": {
        "kilometers": {
            "estimated_diameter_min": 0.063760979,
            "estimated_diameter_max": 0.1425738833
        },
        "meters": {
            "estimated_diameter_min": 63.7609789875,
            "estimated_diameter_max": 142.5738833281
        },
        "miles": {
            "estimated_diameter_min": 0.0396192233,
            "estimated_diameter_max": 0.0885912765
        },
        "feet": {
            "estimated_diameter_min": 209.1895703015,
            "estimated_diameter_max": 467.7620993781
        }
    },
    "is_potentially_hazardous_asteroid": false,
    "close_approach_data": [
        {
            "close_approach_date": "1984-06-12",
            "close_approach_date_full": "1984-Jun-12 10:15",
            "epoch_date_close_approach": 455883300000,
            "relative_velocity": {
                "kilometers_per_second": "18.9489533253",
                "kilometers_per_hour": "68216.2319709284",
                "miles_per_hour": "42386.9136932694"
            },
            "miss_distance": {
                "astronomical": "0.3947493321",
                "lunar": "153.5574901869",
                "kilometers": "59053659.266082627",
                "miles": "36694242.3333171726"
            },
            "orbiting_body": "Earth"
        },
        {
            "close_approach_date": "2016-07-18",
            "close_approach_date_full": "2016-Jul-18 12:53",
            "epoch_date_close_approach": 1468846380000,
            "relative_velocity": {
                "kilometers_per_second": "8.7797500034",
                "kilometers_per_hour": "31607.1000124179",
                "miles_per_hour": "19639.422782716"
            },
            "miss_distance": {
                "astronomical": "0.0439987052",
                "lunar": "17.1154963228",
                "kilometers": "6582112.580677924",
                "miles": "4089935.1048223912"
            },
            "orbiting_body": "Earth"
        },
        {
            "close_approach_date": "2064-09-28",
            "close_approach_date_full": "2064-Sep-28 04:48",
            "epoch_date_close_approach": 2989802880000,
            "relative_velocity": {
                "kilometers_per_second": "20.7091726392",
                "kilometers_per_hour": "74553.0215011272",
                "miles_per_hour": "46324.348276631"
            },
            "miss_distance": {
                "astronomical": "0.4968437901",
                "lunar": "193.2722343489",
                "kilometers": "74326772.721687087",
                "miles": "46184514.9648403206"
            },
            "orbiting_body": "Earth"
        },
        {
            "close_approach_date": "2077-06-10",
            "close_approach_date_full": "2077-Jun-10 16:43",
            "epoch_date_close_approach": 3390568980000,
            "relative_velocity": {
                "kilometers_per_second": "20.4450803763",
                "kilometers_per_hour": "73602.2893547347",
                "miles_per_hour": "45733.6002937795"
            },
            "miss_distance": {
                "astronomical": "0.4467062587",
                "lunar": "173.7687346343",
                "kilometers": "66826304.817188969",
                "miles": "41523940.3227030122"
            },
            "orbiting_body": "Earth"
        }
    ],
    "orbital_data": {
        "orbit_id": "15",
        "orbit_determination_date": "2018-01-18 06:52:45",
        "first_observation_date": "2016-06-26",
        "last_observation_date": "2016-10-01",
        "data_arc_in_days": 97,
        "observations_used": 103,
        "orbit_uncertainty": "6",
        "minimum_orbit_intersection": ".0435936",
        "jupiter_tisserand_invariant": "3.483",
        "epoch_osculation": "2459000.5",
        "eccentricity": ".5226185518493902",
        "semi_major_axis": "2.172842910096397",
        "inclination": "9.130888941968077",
        "ascending_node_longitude": "108.0496511282444",
        "orbital_period": "1169.878934270056",
        "perihelion_distance": "1.037274895025603",
        "perihelion_argument": "204.980500241045",
        "aphelion_distance": "3.30841092516719",
        "perihelion_time": "2458772.288467763800",
        "mean_anomaly": "70.22619965055885",
        "mean_motion": ".3077241494433963",
        "equinox": "J2000",
        "orbit_class": {
            "orbit_class_type": "AMO",
            "orbit_class_description": "Near-Earth asteroid orbits similar to that of 1221 Amor",
            "orbit_class_range": "1.017 AU < q (perihelion) < 1.3 AU"
        }
    },
    "is_sentry_object": false
}